{"type": "FeatureCollection", "features": [ {"type": "Feature", "properties": {"norad_id": 45344, "name": "BEIDOU-3 G2 (C60)", "group": "gnss", "lat": 2.518837096545087, "lon": 131.69333724112786, "alt_km": 35798.31556368469, "timestamp": "2025-12-17T21:39:45.933971+00:00", "meta": {"OBJECT_NAME": "BEIDOU-3 G2 (C60)", "OBJECT_ID": "2020-017A", "EPOCH": "2025-12-17T15:25:10.515648", "MEAN_MOTION": 1.002635, "ECCENTRICITY": 0.0002583, "INCLINATION": 2.506, "RA_OF_ASC_NODE": 44.0524, "ARG_OF_PERICENTER": 247.3887, "MEAN_ANOMALY": 106.3774, "EPHEMERIS_TYPE": 0, "CLASSIFICATION_TYPE": "U", "NORAD_CAT_ID": 45344, "ELEMENT_SET_NO": 999, "REV_AT_EPOCH": 2143, "BSTAR": 0, "MEAN_MOTION_DOT": -1.16e-06, "MEAN_MOTION_DDOT": 0}, "tle": {"line1": "1 45344U 20017A   25351.64248282 -.00000116  00000+0  00000+0 0  9999", "line2": "2 45344   2.5060  44.0524 0002583 247.3887 106.3774  1.00263500 21436"}}, "geometry": {"type": "Point", "coordinates": [131.69333724112786, 2.518837096545087]}}, {"type": "Feature", "properties": {"norad_id": 45358, "name": "COSMOS 2545 (760)", "group": "gnss", "lat": -32.02003195173015, "lon": 156.15941339846074, "alt_km": 19109.275253180203, "timestamp": "2025-12-17T21:39:45.933981+00:00", "meta": {"OBJECT_NAME": "COSMOS 2545 (760)", "OBJECT_ID": "2020-018A", "EPOCH": "2025-12-16T05:06:52.711776", "MEAN_MOTION": 2.13102549, "ECCENTRICITY": 0.00116565, "INCLINATION": 64.4672, "RA_OF_ASC_NODE": 318.8472, "ARG_OF_PERICENTER": 249.26, "MEAN_ANOMALY": 110.6088, "EPHEMERIS_TYPE": 0, "CLASSIFICATION_TYPE": "U", "NORAD_CAT_ID": 45358, "ELEMENT_SET_NO": 999, "REV_AT_EPOCH": 4476, "BSTAR": 0, "MEAN_MOTION_DOT": -7e-07, "MEAN_MOTION_DDOT": 0}, "tle": {"line1": "1 45358U 20018A   25350.21311009 -.00000070  00000+0  00000+0 0  9994", "line2": "2 45358  64.4672 318.8472 0011656 249.2600 110.6088  2.13102549 44763"}}, "geometry": {"type": "Point", "coordinates": [156.15941339846074, -32.02003195173015]}}, {"type": "Feature", "properties": {"norad_id": 45807, "name": "BEIDOU-3 G3 (C61)", "group": "gnss", "lat": 1.9958092296451224, "lon": 162.33117481842726, "alt_km": 35808.195629437985, "timestamp": "2025-12-17T21:39:45.933992+00:00", "meta": {"OBJECT_NAME": "BEIDOU-3 G3 (C61)", "OBJECT_ID": "2020-040A", "EPOCH": "2025-12-17T16:37:31.192032", "MEAN_MOTION": 1.00271872, "ECCENTRICITY": 0.00063902, "INCLINATION": 2.003, "RA_OF_ASC_NODE": 66.627, "ARG_OF_PERICENTER": 309.042, "MEAN_ANOMALY": 70.8585, "EPHEMERIS_TYPE": 0, "CLASSIFICATION_TYPE": "U", "NORAD_CAT_ID": 45807, "ELEMENT_SET_NO": 999, "REV_AT_EPOCH": 2025, "BSTAR": 0, "MEAN_MOTION_DOT": -3.31e-06, "MEAN_MOTION_DDOT": 0}, "tle": {"line1": "1 45807U 20040A   25351.69272213 -.00000331  00000+0  00000+0 0  9994", "line2": "2 45807   2.0030  66.6270 0006390 309.0420  70.8585  1.00271872 20254"}}, "geometry": {"type": "Point", "coordinates": [162.33117481842726, 1.9958092296451224]}}, {"type": "Feature", "properties": {"norad_id": 45854, "name": "GPS BIII-3  (PRN 23)", "group": "gnss", "lat": 50.9066797801088, "lon": 161.6149391783939, "alt_km": 20181.556299982218, "timestamp": "2025-12-17T21:39:45.934002+00:00", "meta": {"OBJECT_NAME": "GPS BIII-3  (PRN 23)", "OBJECT_ID": "2020-041A", "EPOCH": "2025-12-17T06:02:11.568192", "MEAN_MOTION": 2.00562016, "ECCENTRICITY": 0.00605926, "INCLINATION": 56.5499, "RA_OF_ASC_NODE": 36.0099, "ARG_OF_PERICENTER": 203.5861, "MEAN_ANOMALY": 158.5614, "EPHEMERIS_TYPE": 0, "CLASSIFICATION_TYPE": "U", "NORAD_CAT_ID": 45854, "ELEMENT_SET_NO": 999, "REV_AT_EPOCH": 4039, "BSTAR": 0, "MEAN_MOTION_DOT": -7.7e-07, "MEAN_MOTION_DDOT": 0}, "tle": {"line1": "1 45854U 20041A   25351.25152278 -.00000077  00000+0  00000+0 0  9994", "line2": "2 45854  56.5499  36.0099 0060592 203.5861 158.5614  2.00562016 40398"}}, "geometry": {"type": "Point", "coordinates": [161.6149391783939, 50.9066797801088]}}, {"type": "Feature", "properties": {"norad_id": 46114, "name": "GALAXY 30 (WAAS/PRN 135)", "group": "gnss", "lat": -0.04013983123673446, "lon": -73.28432850900307, "alt_km": 35778.02168368411, "timestamp": "2025-12-17T21:39:45.934013+00:00", "meta": {"OBJECT_NAME": "GALAXY 30 (WAAS/PRN 135)", "OBJECT_ID": "2020-056C", "EPOCH": "2025-12-16T10:32:38.625216", "MEAN_MOTION": 1.00271809, "ECCENTRICITY": 0.00020504, "INCLINATION": 0.0174, "RA_OF_ASC_NODE": 8.9673, "ARG_OF_PERICENTER": 254.0657, "MEAN_ANOMALY": 215.4609, "EPHEMERIS_TYPE": 0, "CLASSIFICATION_TYPE": "U", "NORAD_CAT_ID": 46114, "ELEMENT_SET_NO": 999, "REV_AT_EPOCH": 1946, "BSTAR": 0, "MEAN_MOTION_DOT": 6e-07, "MEAN_MOTION_DDOT": 0}, "tle": {"line1": "1 46114U 20056C   25350.43933594  .00000060  00000+0  00000+0 0  9998", "line2": "2 46114   0.0174   8.9673 0002050 254.0657 215.4609  1.00271809 19464"}}, "geometry": {"type": "Point", "coordinates": [-73.28432850900307, -0.04013983123673446]}}, {"type": "Feature", "properties": {"norad_id": 46805, "name": "COSMOS 2547 (705K)", "group": "gnss", "lat": 59.050729733680875, "lon": -109.03329241843915, "alt_km": 19138.03558838015, "timestamp": "2025-12-17T21:39:45.934024+00:00", "meta": {"OBJECT_NAME": "COSMOS 2547 (705K)", "OBJECT_ID": "2020-075A", "EPOCH": "2025-12-17T08:09:16.413120", "MEAN_MOTION": 2.13100135, "ECCENTRICITY": 0.0006183, "INCLINATION": 64.5962, "RA_OF_ASC_NODE": 198.5428, "ARG_OF_PERICENTER": 228.3963, "MEAN_ANOMALY": 131.633, "EPHEMERIS_TYPE": 0, "CLASSIFICATION_TYPE": "U", "NORAD_CAT_ID": 46805, "ELEMENT_SET_NO": 999, "REV_AT_EPOCH": 4003, "BSTAR": 0, "MEAN_MOTION_DOT": 1.12e-06, "MEAN_MOTION_DDOT": 0}, "tle": {"line1": "1 46805U 20075A   25351.33977330  .00000112  00000+0  00000+0 0  9990", "line2": "2 46805  64.5962 198.5428 0006183 228.3963 131.6330  2.13100135 40035"}}, "geometry": {"type": "Point", "coordinates": [-109.03329241843915, 59.050729733680875]}}, {"type": "Feature", "properties": {"norad_id": 46826, "name": "GPS BIII-4  (PRN 14)", "group": "gnss", "lat": 53.37011585143954, "lon": -64.20477172585544, "alt_km": 20263.098730097052, "timestamp": "2025-12-17T21:39:45.934033+00:00", "meta": {"OBJECT_NAME": "GPS BIII-4  (PRN 14)", "OBJECT_ID": "2020-078A", "EPOCH": "2025-12-16T01:06:13.902336", "MEAN_MOTION": 2.00566891, "ECCENTRICITY": 0.00647559, "INCLINATION": 54.0145, "RA_OF_ASC_NODE": 218.2068, "ARG_OF_PERICENTER": 203.3837, "MEAN_ANOMALY": 339.3927, "EPHEMERIS_TYPE": 0, "CLASSIFICATION_TYPE": "U", "NORAD_CAT_ID": 46826, "ELEMENT_SET_NO": 999, "REV_AT_EPOCH": 3783, "BSTAR": 0, "MEAN_MOTION_DOT": 6.7e-07, "MEAN_MOTION_DDOT": 0}, "tle": {"line1": "1 46826U 20078A   25350.04599424  .00000067  00000+0  00000+0 0  9996", "line2": "2 46826  54.0145 218.2068 0064755 203.3837 339.3927  2.00566891 37831"}}, "geometry": {"type": "Point", "coordinates": [-64.20477172585544, 53.37011585143954]}}, {"type": "Feature", "properties": {"norad_id": 48859, "name": "GPS BIII-5  (PRN 11)", "group": "gnss", "lat": -55.21413866577177, "lon": -112.67685867599914, "alt_km": 20135.12270590225, "timestamp": "2025-12-17T21:39:45.934043+00:00", "meta": {"OBJECT_NAME": "GPS BIII-5  (PRN 11)", "OBJECT_ID": "2021-054A", "EPOCH": "2025-12-08T04:14:32.423424", "MEAN_MOTION": 2.00553627, "ECCENTRICITY": 0.0024678, "INCLINATION": 55.2581, "RA_OF_ASC_NODE": 340.1367, "ARG_OF_PERICENTER": 233.3994, "MEAN_ANOMALY": 212.8593, "EPHEMERIS_TYPE": 0, "CLASSIFICATION_TYPE": "U", "NORAD_CAT_ID": 48859, "ELEMENT_SET_NO": 999, "REV_AT_EPOCH": 3292, "BSTAR": 0, "MEAN_MOTION_DOT": -8.6e-07, "MEAN_MOTION_DDOT": 0}, "tle": {"line1": "1 48859U 21054A   25342.17676416 -.00000086  00000+0  00000+0 0  9993", "line2": "2 48859  55.2581 340.1367 0024678 233.3994 212.8593  2.00553627 32922"}}, "geometry": {"type": "Point", "coordinates": [-112.67685867599914, -55.21413866577177]}}, {"type": "Feature", "properties": {"norad_id": 49336, "name": "QZS-1R (QZSS/PRN 196)", "group": "gnss", "lat": 36.1417403566941, "lon": -172.52363830361708, "alt_km": 38895.55294643901, "timestamp": "2025-12-17T21:39:45.934053+00:00", "meta": {"OBJECT_NAME": "QZS-1R (QZSS/PRN 196)", "OBJECT_ID": "2021-096A", "EPOCH": "2025-12-17T14:00:33.617952", "MEAN_MOTION": 1.00256208, "ECCENTRICITY": 0.07563637, "INCLINATION": 37.0872, "RA_OF_ASC_NODE": 82.2877, "ARG_OF_PERICENTER": 271.4154, "MEAN_ANOMALY": 77.3787, "EPHEMERIS_TYPE": 0, "CLASSIFICATION_TYPE": "U", "NORAD_CAT_ID": 49336, "ELEMENT_SET_NO": 999, "REV_AT_EPOCH": 1518, "BSTAR": 0, "MEAN_MOTION_DOT": -2.76e-06, "MEAN_MOTION_DDOT": 0}, "tle": {"line1": "1 49336U 21096A   25351.58372243 -.00000276  00000+0  00000+0 0  9997", "line2": "2 49336  37.0872  82.2877 0756363 271.4154  77.3787  1.00256208 15180"}}, "geometry": {"type": "Point", "coordinates": [-172.52363830361708, 36.1417403566941]}}, {"type": "Feature", "properties": {"norad_id": 49809, "name": "GSAT0223 (GALILEO 27)", "group": "gnss", "lat": 55.42533219146896, "lon": 97.30765514831909, "alt_km": 23227.262210161993, "timestamp": "2025-12-17T21:39:45.934065+00:00", "meta": {"OBJECT_NAME": "GSAT0223 (GALILEO 27)", "OBJECT_ID": "2021-116A", "EPOCH": "2025-12-16T20:22:21.643104", "MEAN_MOTION": 1.70476101, "ECCENTRICITY": 0.00044272, "INCLINATION": 57.2185, "RA_OF_ASC_NODE": 346.6017, "ARG_OF_PERICENTER": 254.1798, "MEAN_ANOMALY": 280.7094, "EPHEMERIS_TYPE": 0, "CLASSIFICATION_TYPE": "U", "NORAD_CAT_ID": 49809, "ELEMENT_SET_NO": 999, "REV_AT_EPOCH": 2507, "BSTAR": 0, "MEAN_MOTION_DOT": -7.9e-07, "MEAN_MOTION_DDOT": 0}, "tle": {"line1": "1 49809U 21116A   25350.84886161 -.00000079  00000+0  00000+0 0  9993", "line2": "2 49809  57.2185 346.6017 0004427 254.1798 280.7094  1.70476101 25071"}}, "geometry": {"type": "Point", "coordinates": [97.30765514831909, 55.42533219146896]}}]}